{
  "type": "FeatureCollection",
  "features": [
    {
      "type": "Feature",
      "properties": {
        "norad_id": 31724,
        "name": "FENGYUN 1C DEB",
        "group": "fengyun-1c-debris",
        "lat": -76.31344001093036,
        "lon": 143.78329189826616,
        "alt_km": 646.8015525583678,
        "timestamp": "2025-12-18T17:50:15.240592+00:00",
        "meta_object_name": "FENGYUN 1C DEB",
        "meta_object_id": "1999-025CDX",
        "meta_epoch": "2025-12-18T06:42:13.489056",
        "meta_mean_motion": 14.4921063,
        "meta_eccentricity": 0.01518175,
        "meta_inclination": 97.854,
        "meta_ra_of_asc_node": 357.8795,
        "meta_arg_of_pericenter": 224.9908,
        "meta_mean_anomaly": 133.8907,
        "meta_ephemeris_type": 0,
        "meta_classification_type": "U",
        "meta_norad_cat_id": 31724,
        "meta_element_set_no": 999,
        "meta_rev_at_epoch": 64572,
        "meta_bstar": 0.0020617132,
        "meta_mean_motion_dot": 9.059e-05,
        "meta_mean_motion_ddot": 0,
        "tle_line1": "1 31724U 99025CDX 25352.27932279  .00009059  00000+0  20617-2 0  9990",
        "tle_line2": "2 31724  97.8540 357.8795 0151817 224.9908 133.8907 14.49210630645728"
      },
      "geometry": {
        "type": "Point",
        "coordinates": [
          143.78329189826616,
          -76.31344001093036
        ]
      }
    },
    {
      "type": "Feature",
      "properties": {
        "norad_id": 31725,
        "name": "FENGYUN 1C DEB",
        "group": "fengyun-1c-debris",
        "lat": 21.139386952044152,
        "lon": -154.98065745921068,
        "alt_km": 1049.79894624591,
        "timestamp": "2025-12-18T17:50:15.240602+00:00",
        "meta_object_name": "FENGYUN 1C DEB",
        "meta_object_id": "1999-025CDY",
        "meta_epoch": "2025-12-17T21:05:21.230880",
        "meta_mean_motion": 12.79203585,
        "meta_eccentricity": 0.06944571,
        "meta_inclination": 99.1801,
        "meta_ra_of_asc_node": 207.8945,
        "meta_arg_of_pericenter": 323.3807,
        "meta_mean_anomaly": 32.1667,
        "meta_ephemeris_type": 0,
        "meta_classification_type": "U",
        "meta_norad_cat_id": 31725,
        "meta_element_set_no": 999,
        "meta_rev_at_epoch": 86547,
        "meta_bstar": 0.0022154725,
        "meta_mean_motion_dot": 1.348e-05,
        "meta_mean_motion_ddot": 0,
        "tle_line1": "1 31725U 99025CDY 25351.87871795  .00001348  00000+0  22155-2 0  9993",
        "tle_line2": "2 31725  99.1801 207.8945 0694457 323.3807  32.1667 12.79203585865471"
      },
      "geometry": {
        "type": "Point",
        "coordinates": [
          -154.98065745921068,
          21.139386952044152
        ]
      }
    },
    {
      "type": "Feature",
      "properties": {
        "norad_id": 31727,
        "name": "FENGYUN 1C DEB",
        "group": "fengyun-1c-debris",
        "lat": 5.644483146318545,
        "lon": 104.08770169205424,
        "alt_km": 753.7094615399828,
        "timestamp": "2025-12-18T17:50:15.240613+00:00",
        "meta_object_name": "FENGYUN 1C DEB",
        "meta_object_id": "1999-025CEA",
        "meta_epoch": "2025-12-18T06:15:11.190816",
        "meta_mean_motion": 14.37077056,
        "meta_eccentricity": 0.00323102,
        "meta_inclination": 98.8654,
        "meta_ra_of_asc_node": 104.4745,
        "meta_arg_of_pericenter": 323.1316,
        "meta_mean_anomaly": 66.6962,
        "meta_ephemeris_type": 0,
        "meta_classification_type": "U",
        "meta_norad_cat_id": 31727,
        "meta_element_set_no": 999,
        "meta_rev_at_epoch": 71748,
        "meta_bstar": 0.0016261086,
        "meta_mean_motion_dot": 4.813e-05,
        "meta_mean_motion_ddot": 0,
        "tle_line1": "1 31727U 99025CEA 25352.26054619  .00004813  00000+0  16261-2 0  9998",
        "tle_line2": "2 31727  98.8654 104.4745 0032310 323.1316  66.6962 14.37077056717487"
      },
      "geometry": {
        "type": "Point",
        "coordinates": [
          104.08770169205424,
          5.644483146318545
        ]
      }
    },
    {
      "type": "Feature",
      "properties": {
        "norad_id": 31731,
        "name": "FENGYUN 1C DEB",
        "group": "fengyun-1c-debris",
        "lat": -69.03698096461267,
        "lon": -163.87691659027857,
        "alt_km": 772.8474255754081,
        "timestamp": "2025-12-18T17:50:15.240623+00:00",
        "meta_object_name": "FENGYUN 1C DEB",
        "meta_object_id": "1999-025CEE",
        "meta_epoch": "2025-11-27T02:07:07.827456",
        "meta_mean_motion": 14.40063792,
        "meta_eccentricity": 0.00116613,
        "meta_inclination": 99.3084,
        "meta_ra_of_asc_node": 17.9462,
        "meta_arg_of_pericenter": 144.9647,
        "meta_mean_anomaly": 215.2308,
        "meta_ephemeris_type": 0,
        "meta_classification_type": "U",
        "meta_norad_cat_id": 31731,
        "meta_element_set_no": 999,
        "meta_rev_at_epoch": 95605,
        "meta_bstar": 0.0018623031,
        "meta_mean_motion_dot": 5.831e-05,
        "meta_mean_motion_ddot": 0,
        "tle_line1": "1 31731U 99025CEE 25331.08828504  .00005831  00000+0  18623-2 0  9997",
        "tle_line2": "2 31731  99.3084  17.9462 0011661 144.9647 215.2308 14.40063792956051"
      },
      "geometry": {
        "type": "Point",
        "coordinates": [
          -163.87691659027857,
          -69.03698096461267
        ]
      }
    },
    {
      "type": "Feature",
      "properties": {
        "norad_id": 31732,
        "name": "FENGYUN 1C DEB",
        "group": "fengyun-1c-debris",
        "lat": -69.06918270105933,
        "lon": 50.460061730354035,
        "alt_km": 844.8908062500468,
        "timestamp": "2025-12-18T17:50:15.240633+00:00",
        "meta_object_name": "FENGYUN 1C DEB",
        "meta_object_id": "1999-025CEF",
        "meta_epoch": "2025-12-17T13:15:59.741856",
        "meta_mean_motion": 14.1225966,
        "meta_eccentricity": 0.00398279,
        "meta_inclination": 98.5726,
        "meta_ra_of_asc_node": 26.0942,
        "meta_arg_of_pericenter": 231.4912,
        "meta_mean_anomaly": 128.2686,
        "meta_ephemeris_type": 0,
        "meta_classification_type": "U",
        "meta_norad_cat_id": 31732,
        "meta_element_set_no": 999,
        "meta_rev_at_epoch": 64398,
        "meta_bstar": 0.00028723871,
        "meta_mean_motion_dot": 4.9e-06,
        "meta_mean_motion_ddot": 0,
        "tle_line1": "1 31732U 99025CEF 25351.55277479  .00000490  00000+0  28724-3 0  9991",
        "tle_line2": "2 31732  98.5726  26.0942 0039827 231.4912 128.2686 14.12259660643988"
      },
      "geometry": {
        "type": "Point",
        "coordinates": [
          50.460061730354035,
          -69.06918270105933
        ]
      }
    },
    {
      "type": "Feature",
      "properties": {
        "norad_id": 31734,
        "name": "FENGYUN 1C DEB",
        "group": "fengyun-1c-debris",
        "lat": -13.780586362937845,
        "lon": 162.6272638299042,
        "alt_km": 867.2722273537456,
        "timestamp": "2025-12-18T17:50:15.240644+00:00",
        "meta_object_name": "FENGYUN 1C DEB",
        "meta_object_id": "1999-025CEH",
        "meta_epoch": "2025-12-17T05:38:30.357312",
        "meta_mean_motion": 14.2902964,
        "meta_eccentricity": 0.01035042,
        "meta_inclination": 98.4953,
        "meta_ra_of_asc_node": 343.2584,
        "meta_arg_of_pericenter": 354.3593,
        "meta_mean_anomaly": 5.6416,
        "meta_ephemeris_type": 0,
        "meta_classification_type": "U",
        "meta_norad_cat_id": 31734,
        "meta_element_set_no": 999,
        "meta_rev_at_epoch": 96515,
        "meta_bstar": 0.00042036115,
        "meta_mean_motion_dot": 1.084e-05,
        "meta_mean_motion_ddot": 0,
        "tle_line1": "1 31734U 99025CEH 25351.23507358  .00001084  00000+0  42036-3 0  9992",
        "tle_line2": "2 31734  98.4953 343.2584 0103504 354.3593   5.6416 14.29029640965157"
      },
      "geometry": {
        "type": "Point",
        "coordinates": [
          162.6272638299042,
          -13.780586362937845
        ]
      }
    },
    {
      "type": "Feature",
      "properties": {
        "norad_id": 31735,
        "name": "FENGYUN 1C DEB",
        "group": "fengyun-1c-debris",
        "lat": 33.11311998346251,
        "lon": 90.46064155264608,
        "alt_km": 773.3747453139667,
        "timestamp": "2025-12-18T17:50:15.240654+00:00",
        "meta_object_name": "FENGYUN 1C DEB",
        "meta_object_id": "1999-025CEJ",
        "meta_epoch": "2025-12-16T02:25:27.533568",
        "meta_mean_motion": 14.42553098,
        "meta_eccentricity": 0.00588826,
        "meta_inclination": 98.5801,
        "meta_ra_of_asc_node": 93.4541,
        "meta_arg_of_pericenter": 274.0925,
        "meta_mean_anomaly": 85.3535,
        "meta_ephemeris_type": 0,
        "meta_classification_type": "U",
        "meta_norad_cat_id": 31735,
        "meta_element_set_no": 999,
        "meta_rev_at_epoch": 96713,
        "meta_bstar": 0.00031395089,
        "meta_mean_motion_dot": 1.017e-05,
        "meta_mean_motion_ddot": 0,
        "tle_line1": "1 31735U 99025CEJ 25350.10101312  .00001017  00000+0  31395-3 0  9990",
        "tle_line2": "2 31735  98.5801  93.4541 0058882 274.0925  85.3535 14.42553098967134"
      },
      "geometry": {
        "type": "Point",
        "coordinates": [
          90.46064155264608,
          33.11311998346251
        ]
      }
    }
  ]
}